[{"OBJECT_NAME":"STARLINK-1221","OBJECT_ID":"2020-012BB","EPOCH":"2026-03-09T20:19:19.583616","MEAN_MOTION":15.41921264,"ECCENTRICITY":0.00031743,"INCLINATION":53.0648,"RA_OF_ASC_NODE":268.8713,"ARG_OF_PERICENTER":49.9082,"MEAN_ANOMALY":310.22,"EPHEMERIS_TYPE":0,"CLASSIFICATION_TYPE":"U","NORAD_CAT_ID":45227,"ELEMENT_SET_NO":999,"REV_AT_EPOCH":33673,"BSTAR":0.00044901803,"MEAN_MOTION_DOT":0.00019024,"MEAN_MOTION_DDOT":0},{"OBJECT_NAME":"STARLINK-31079","OBJECT_ID":"2023-200K","EPOCH":"2026-03-09T22:00:01.999584","MEAN_MOTION":15.38917624,"ECCENTRICITY":0.00268616,"INCLINATION":42.9849,"RA_OF_ASC_NODE":139.2305,"ARG_OF_PERICENTER":29.9846,"MEAN_ANOMALY":113.2659,"EPHEMERIS_TYPE":0,"CLASSIFICATION_TYPE":"U","NORAD_CAT_ID":58598,"ELEMENT_SET_NO":999,"REV_AT_EPOCH":581,"BSTAR":0.0026849356,"MEAN_MOTION_DOT":0.00108251,"MEAN_MOTION_DDOT":0}]
